{
  "type": "FeatureCollection",
  "features": [
    {
      "type": "Feature",
      "properties": {
        "norad_id": 66394,
        "name": "STARLINK-35672",
        "group": "last-30-days",
        "lat": 50.87663792937315,
        "lon": -12.358519421013726,
        "alt_km": 439.63711971108114,
        "timestamp": "2025-12-09T07:41:31.971021+00:00",
        "meta_object_name": "STARLINK-35672",
        "meta_object_id": "2025-257Q",
        "meta_epoch": "2025-12-09T00:00:02.000160",
        "meta_mean_motion": 15.39603633,
        "meta_eccentricity": 0.00012384,
        "meta_inclination": 53.1589,
        "meta_ra_of_asc_node": 281.9622,
        "meta_arg_of_pericenter": 96.9982,
        "meta_mean_anomaly": 1.5477,
        "meta_ephemeris_type": 0,
        "meta_classification_type": "U",
        "meta_norad_cat_id": 66394,
        "meta_element_set_no": 999,
        "meta_rev_at_epoch": 589,
        "meta_bstar": 0.00030676119,
        "meta_mean_motion_dot": 0.00011883,
        "meta_mean_motion_ddot": 0,
        "tle_line1": "1 66394U 25257Q   25343.00002315  .00011883  00000+0  30676-3 0  9992",
        "tle_line2": "2 66394  53.1589 281.9622 0001238  96.9982   1.5477 15.39603633  5893"
      },
      "geometry": {
        "type": "Point",
        "coordinates": [
          -12.358519421013726,
          50.87663792937315
        ]
      }
    },
    {
      "type": "Feature",
      "properties": {
        "norad_id": 66395,
        "name": "STARLINK-35681",
        "group": "last-30-days",
        "lat": 52.03866783877177,
        "lon": 26.470435479582502,
        "alt_km": 439.6285034043767,
        "timestamp": "2025-12-09T07:41:31.971032+00:00",
        "meta_object_name": "STARLINK-35681",
        "meta_object_id": "2025-257R",
        "meta_epoch": "2025-12-09T00:00:02.000160",
        "meta_mean_motion": 15.39604924,
        "meta_eccentricity": 9.187e-05,
        "meta_inclination": 53.1595,
        "meta_ra_of_asc_node": 281.9156,
        "meta_arg_of_pericenter": 99.3628,
        "meta_mean_anomaly": 23.0983,
        "meta_ephemeris_type": 0,
        "meta_classification_type": "U",
        "meta_norad_cat_id": 66395,
        "meta_element_set_no": 999,
        "meta_rev_at_epoch": 573,
        "meta_bstar": 0.00034312316,
        "meta_mean_motion_dot": 0.00013342,
        "meta_mean_motion_ddot": 0,
        "tle_line1": "1 66395U 25257R   25343.00002315  .00013342  00000+0  34312-3 0  9996",
        "tle_line2": "2 66395  53.1595 281.9156 0000918  99.3628  23.0983 15.39604924  5739"
      },
      "geometry": {
        "type": "Point",
        "coordinates": [
          26.470435479582502,
          52.03866783877177
        ]
      }
    },
    {
      "type": "Feature",
      "properties": {
        "norad_id": 66396,
        "name": "STARLINK-35669",
        "group": "last-30-days",
        "lat": 51.595136254064045,
        "lon": 29.358143325875414,
        "alt_km": 439.6463777238905,
        "timestamp": "2025-12-09T07:41:31.971043+00:00",
        "meta_object_name": "STARLINK-35669",
        "meta_object_id": "2025-257S",
        "meta_epoch": "2025-12-09T00:00:02.000160",
        "meta_mean_motion": 15.39604606,
        "meta_eccentricity": 9.856e-05,
        "meta_inclination": 53.1595,
        "meta_ra_of_asc_node": 281.911,
        "meta_arg_of_pericenter": 95.1533,
        "meta_mean_anomaly": 29.146,
        "meta_ephemeris_type": 0,
        "meta_classification_type": "U",
        "meta_norad_cat_id": 66396,
        "meta_element_set_no": 999,
        "meta_rev_at_epoch": 589,
        "meta_bstar": 0.00034854443,
        "meta_mean_motion_dot": 0.0001356,
        "meta_mean_motion_ddot": 0,
        "tle_line1": "1 66396U 25257S   25343.00002315  .00013560  00000+0  34854-3 0  9990",
        "tle_line2": "2 66396  53.1595 281.9110 0000985  95.1533  29.1460 15.39604606  5894"
      },
      "geometry": {
        "type": "Point",
        "coordinates": [
          29.358143325875414,
          51.595136254064045
        ]
      }
    },
    {
      "type": "Feature",
      "properties": {
        "norad_id": 66397,
        "name": "STARLINK-35510",
        "group": "last-30-days",
        "lat": 40.590914482985724,
        "lon": 60.38370985800712,
        "alt_km": 441.2013328354815,
        "timestamp": "2025-12-09T07:41:31.971054+00:00",
        "meta_object_name": "STARLINK-35510",
        "meta_object_id": "2025-257T",
        "meta_epoch": "2025-12-09T00:00:02.000160",
        "meta_mean_motion": 15.39602875,
        "meta_eccentricity": 0.00013817,
        "meta_inclination": 53.1599,
        "meta_ra_of_asc_node": 281.8638,
        "meta_arg_of_pericenter": 85.009,
        "meta_mean_anomaly": 63.1937,
        "meta_ephemeris_type": 0,
        "meta_classification_type": "U",
        "meta_norad_cat_id": 66397,
        "meta_element_set_no": 999,
        "meta_rev_at_epoch": 589,
        "meta_bstar": 0.00036898064,
        "meta_mean_motion_dot": 0.00014379,
        "meta_mean_motion_ddot": 0,
        "tle_line1": "1 66397U 25257T   25343.00002315  .00014379  00000+0  36898-3 0  9990",
        "tle_line2": "2 66397  53.1599 281.8638 0001381  85.0090  63.1937 15.39602875  5893"
      },
      "geometry": {
        "type": "Point",
        "coordinates": [
          60.38370985800712,
          40.590914482985724
        ]
      }
    },
    {
      "type": "Feature",
      "properties": {
        "norad_id": 66398,
        "name": "STARLINK-35642",
        "group": "last-30-days",
        "lat": 22.5477888440093,
        "lon": 82.16547314303611,
        "alt_km": 444.52563678710703,
        "timestamp": "2025-12-09T07:41:31.971065+00:00",
        "meta_object_name": "STARLINK-35642",
        "meta_object_id": "2025-257U",
        "meta_epoch": "2025-12-09T00:00:02.000160",
        "meta_mean_motion": 15.39610709,
        "meta_eccentricity": 0.00013962,
        "meta_inclination": 53.1599,
        "meta_ra_of_asc_node": 281.8122,
        "meta_arg_of_pericenter": 75.6664,
        "meta_mean_anomaly": 98.2627,
        "meta_ephemeris_type": 0,
        "meta_classification_type": "U",
        "meta_norad_cat_id": 66398,
        "meta_element_set_no": 999,
        "meta_rev_at_epoch": 589,
        "meta_bstar": 0.00056690289,
        "meta_mean_motion_dot": 0.00022336,
        "meta_mean_motion_ddot": 0,
        "tle_line1": "1 66398U 25257U   25343.00002315  .00022336  00000+0  56690-3 0  9995",
        "tle_line2": "2 66398  53.1599 281.8122 0001396  75.6664  98.2627 15.39610709  5890"
      },
      "geometry": {
        "type": "Point",
        "coordinates": [
          82.16547314303611,
          22.5477888440093
        ]
      }
    },
    {
      "type": "Feature",
      "properties": {
        "norad_id": 66399,
        "name": "STARLINK-35657",
        "group": "last-30-days",
        "lat": 39.44754937523002,
        "lon": 62.26124348155016,
        "alt_km": 441.45275454952025,
        "timestamp": "2025-12-09T07:41:31.971075+00:00",
        "meta_object_name": "STARLINK-35657",
        "meta_object_id": "2025-257V",
        "meta_epoch": "2025-12-09T00:00:02.000160",
        "meta_mean_motion": 15.39602297,
        "meta_eccentricity": 0.00011294,
        "meta_inclination": 53.1599,
        "meta_ra_of_asc_node": 281.8596,
        "meta_arg_of_pericenter": 93.8093,
        "meta_mean_anomaly": 56.2331,
        "meta_ephemeris_type": 0,
        "meta_classification_type": "U",
        "meta_norad_cat_id": 66399,
        "meta_element_set_no": 999,
        "meta_rev_at_epoch": 589,
        "meta_bstar": 0.00044022059,
        "meta_mean_motion_dot": 0.00017238,
        "meta_mean_motion_ddot": 0,
        "tle_line1": "1 66399U 25257V   25343.00002315  .00017238  00000+0  44022-3 0  9997",
        "tle_line2": "2 66399  53.1599 281.8596 0001129  93.8093  56.2331 15.39602297  5897"
      },
      "geometry": {
        "type": "Point",
        "coordinates": [
          62.26124348155016,
          39.44754937523002
        ]
      }
    },
    {
      "type": "Feature",
      "properties": {
        "norad_id": 66400,
        "name": "STARLINK-35667",
        "group": "last-30-days",
        "lat": 2.274266185026554,
        "lon": 98.54325996395382,
        "alt_km": 447.76648877023763,
        "timestamp": "2025-12-09T07:41:31.971086+00:00",
        "meta_object_name": "STARLINK-35667",
        "meta_object_id": "2025-257W",
        "meta_epoch": "2025-12-09T00:00:02.000160",
        "meta_mean_motion": 15.39599744,
        "meta_eccentricity": 0.00014482,
        "meta_inclination": 53.1597,
        "meta_ra_of_asc_node": 281.76,
        "meta_arg_of_pericenter": 91.7126,
        "meta_mean_anomaly": 108.0091,
        "meta_ephemeris_type": 0,
        "meta_classification_type": "U",
        "meta_norad_cat_id": 66400,
        "meta_element_set_no": 999,
        "meta_rev_at_epoch": 589,
        "meta_bstar": 0.00038345514,
        "meta_mean_motion_dot": 0.00014958,
        "meta_mean_motion_ddot": 0,
        "tle_line1": "1 66400U 25257W   25343.00002315  .00014958  00000+0  38346-3 0  9998",
        "tle_line2": "2 66400  53.1597 281.7600 0001448  91.7126 108.0091 15.39599744  5892"
      },
      "geometry": {
        "type": "Point",
        "coordinates": [
          98.54325996395382,
          2.274266185026554
        ]
      }
    }
  ]
}